API VERSION: 1.2
API SOURCE: NASA/JPL Horizons API

*******************************************************************************
 Revised: April 22, 2021              Neptune                               899
 
 PHYSICAL DATA (update 2021-May-03):
  Mass x10^24 (kg)      = 102.409         Density (g/cm^3)       =  1.638
  Equat. radius (1 bar) = 24766+-15 km    Volume, 10^10 km^3     = 6254     
  Vol. mean radius (km) = 24624+-21       Polar radius (km)      = 24342+-30
  Geometric Albedo      = 0.41            Flattening             =  0.0171
  Sid. rot. period (III)= 16.11+-0.01 hr  Sid. rot. rate (rad/s) =  0.000108338 
  Mean solar day, h     =~16.11 h         
  GM (km^3/s^2)         = 6835099.97      GM 1-sigma (km^3/s^2)  = +-10 
  Equ. grav, ge (m/s^2) = 11.15           Pol. grav, gp (m/s^2)  = 11.41+-0.03
  Visual magnitude V(1,0)= -6.87
  Vis. mag. (opposition)=  +7.84          Obliquity to orbit     = 28.32 deg
  Sidereal orbit period = 164.788501027 y Sidereal orbit period  = 60189 d
  Mean daily motion     = 0.006020076dg/d Mean orbit velocity    =  5.43 km/s 
  Atmos. temp. (1 bar)  =  72+-2 K        Escape speed (1 bar)  =  23.5 km/s     
  Aroche(ice)/Rp        =  2.98           Hill's sphere rad., Rp = 4700
                                 Perihelion  Aphelion    Mean
  Solar Constant (W/m^2)         1.54        1.49        1.51
  Maximum Planetary IR (W/m^2)   0.52        0.52        0.52
  Minimum Planetary IR (W/m^2)   0.52        0.52        0.52
*******************************************************************************


*******************************************************************************
Ephemeris / API_USER Thu Feb 19 13:06:31 2026 Pasadena, USA      / Horizons
*******************************************************************************
Target body name: Neptune (899)                   {source: nep097_merged}
Center body name: Sun (10)                        {source: nep097_merged}
Center-site name: BODY CENTER
*******************************************************************************
Start time      : A.D. 2107-Apr-28 21:10:00.0000 TDB
Stop  time      : A.D. 2107-May-01 21:10:00.0000 TDB
Step-size       : 60 minutes
*******************************************************************************
Center geodetic : 0.0, 0.0, 0.0                   {E-lon(deg),Lat(deg),Alt(km)}
Center cylindric: 0.0, 0.0, 0.0                   {E-lon(deg),Dxy(km),Dz(km)}
Center radii    : 695700.0, 695700.0, 695700.0 km {Equator_a, b, pole_c}
Output units    : AU-D
Calendar mode   : Mixed Julian/Gregorian
Output type     : GEOMETRIC cartesian states
Output format   : 3 (position, velocity, LT, range, range-rate)
Reference frame : Ecliptic of J2000.0
*******************************************************************************
JDTDB
   X     Y     Z
   VX    VY    VZ
   LT    RG    RR
*******************************************************************************
$$SOE
2490745.381944444 = A.D. 2107-Apr-30 21:10:00.0000 TDB 
 X =-3.024688832856648E+01 Y =-1.555651201306503E-03 Z = 6.972286120340445E-01
 VX=-2.197528540864737E-05 VY=-3.113801810586914E-03 VZ= 6.504820434089326E-05
 LT= 1.747378641190848E-01 RG= 3.025492329718026E+01 RR= 2.362859940106138E-05
2490745.423611111 = A.D. 2107-Apr-30 22:10:00.0000 TDB 
 X =-3.024688924360887E+01 Y =-1.685392614412150E-03 Z = 6.972313222057676E-01
 VX=-2.194669167115955E-05 VY=-3.113786133552660E-03 VZ= 6.503991938525795E-05
 LT= 1.747378698033788E-01 RG= 3.025492428138525E+01 RR= 2.361318001454190E-05
2490745.465277778 = A.D. 2107-Apr-30 23:10:00.0000 TDB 
 X =-3.024689015745290E+01 Y =-1.815133388909433E-03 Z = 6.972340320175261E-01
 VX=-2.191776986843263E-05 VY=-3.113771162567854E-03 VZ= 6.503092883019707E-05
 LT= 1.747378754839200E-01 RG= 3.025492526494047E+01 RR= 2.359741622799016E-05
2490745.506944444 = A.D. 2107-May-01 00:10:00.0000 TDB 
 X =-3.024689107008556E+01 Y =-1.944873554854254E-03 Z = 6.972367414402784E-01
 VX=-2.188855164328085E-05 VY=-3.113756927957346E-03 VZ= 6.502125011253665E-05
 LT= 1.747378811606295E-01 RG= 3.025492624783226E+01 RR= 2.358134009153776E-05
2490745.548611111 = A.D. 2107-May-01 01:10:00.0000 TDB 
 X =-3.024689198149519E+01 Y =-2.074613143534616E-03 Z = 6.972394504457379E-01
 VX=-2.185906917965502E-05 VY=-3.113743458558837E-03 VZ= 6.501090201699193E-05
 LT= 1.747378868334361E-01 RG= 3.025492723004826E+01 RR= 2.356498422792436E-05
2490745.590277778 = A.D. 2107-May-01 02:10:00.0000 TDB 
 X =-3.024689289167145E+01 Y =-2.204352187408519E-03 Z = 6.972421590064281E-01
 VX=-2.182935513656355E-05 VY=-3.113730781667673E-03 VZ= 6.499990463724739E-05
 LT= 1.747378925022762E-01 RG= 3.025492821157752E+01 RR= 2.354838176549764E-05
2490745.631944444 = A.D. 2107-May-01 03:10:00.0000 TDB 
 X =-3.024689380060537E+01 Y =-2.334090720038317E-03 Z = 6.972448670957360E-01
 VX=-2.179944258163012E-05 VY=-3.113718922984892E-03 VZ= 6.498827933468912E-05
 LT= 1.747378981670948E-01 RG= 3.025492919241045E+01 RR= 2.353156627079455E-05
2490745.673611111 = A.D. 2107-May-01 04:10:00.0000 TDB 
 X =-3.024689470828937E+01 Y =-2.463828776022938E-03 Z = 6.972475746879645E-01
 VX=-2.176936492440727E-05 VY=-3.113707906568596E-03 VZ= 6.497604869488213E-05
 LT= 1.747379038278446E-01 RG= 3.025493017253888E+01 RR= 2.351457168082504E-05
2490745.715277778 = A.D. 2107-May-01 05:10:00.0000 TDB 
 X =-3.024689561471728E+01 Y =-2.593566390928653E-03 Z = 6.972502817583828E-01
 VX=-2.173915584956180E-05 VY=-3.113697754788698E-03 VZ= 6.496323648187852E-05
 LT= 1.747379094844865E-01 RG= 3.025493115195607E+01 RR= 2.349743223517664E-05
2490745.756944444 = A.D. 2107-May-01 06:10:00.0000 TDB 
 X =-3.024689651988434E+01 Y =-2.723303601218305E-03 Z = 6.972529882832725E-01
 VX=-2.170884925004614E-05 VY=-3.113688488285128E-03 VZ= 6.494986759044601E-05
 LT= 1.747379151369900E-01 RG= 3.025493213065671E+01 RR= 2.348018240805603E-05
2490745.798611111 = A.D. 2107-May-01 07:10:00.0000 TDB 
 X =-3.024689742378717E+01 Y =-2.853040444177651E-03 Z = 6.972556942399770E-01
 VX=-2.167847916036656E-05 VY=-3.113680125929517E-03 VZ= 6.493596799631355E-05
 LT= 1.747379207853325E-01 RG= 3.025493310863689E+01 RR= 2.346285684038061E-05
2490745.840277778 = A.D. 2107-May-01 08:10:00.0000 TDB 
 X =-3.024689832642386E+01 Y =-2.982776957841301E-03 Z = 6.972583996069427E-01
 VX=-2.164807969005707E-05 VY=-3.113672684790440E-03 VZ= 6.492156470452360E-05
 LT= 1.747379264295000E-01 RG= 3.025493408589421E+01 RR= 2.344549027203143E-05
2490745.881944444 = A.D. 2107-May-01 09:10:00.0000 TDB 
 X =-3.024689922779389E+01 Y =-3.112513180917213E-03 Z = 6.972611043637614E-01
 VX=-2.161768495746515E-05 VY=-3.113666180102241E-03 VZ= 6.490668569599330E-05
 LT= 1.747379320694869E-01 RG= 3.025493506242767E+01 RR= 2.342811747437585E-05
2490745.923611111 = A.D. 2107-May-01 10:10:00.0000 TDB 
 X =-3.024690012789814E+01 Y =-3.242249152709257E-03 Z = 6.972638084912113E-01
 VX=-2.158732902395268E-05 VY=-3.113660625237457E-03 VZ= 6.489135987237750E-05
 LT= 1.747379377052958E-01 RG= 3.025493603823773E+01 RR= 2.341077318316545E-05
2490745.965277778 = A.D. 2107-May-01 11:10:00.0000 TDB 
 X =-3.024690102673897E+01 Y =-3.371984913039408E-03 Z = 6.972665119712915E-01
 VX=-2.155704582861338E-05 VY=-3.113656031682915E-03 VZ= 6.487561699934747E-05
 LT= 1.747379433369377E-01 RG= 3.025493701332631E+01 RR= 2.339349203191352E-05
2490746.006944444 = A.D. 2107-May-01 12:10:00.0000 TDB 
 X =-3.024690192432011E+01 Y =-3.501720502168418E-03 Z = 6.972692147872598E-01
 VX=-2.152686912360510E-05 VY=-3.113652409019470E-03 VZ= 6.485948764836793E-05
 LT= 1.747379489644321E-01 RG= 3.025493798769676E+01 RR= 2.337630848585225E-05
2490746.048611111 = A.D. 2107-May-01 13:10:00.0000 TDB 
 X =-3.024690282064668E+01 Y =-3.631455960716227E-03 Z = 6.972719169236626E-01
 VX=-2.149683241019307E-05 VY=-3.113649764905442E-03 VZ= 6.484300313709725E-05
 LT= 1.747379545878064E-01 RG= 3.025493896135384E+01 RR= 2.335925677656870E-05
2490746.090277778 = A.D. 2107-May-01 14:10:00.0000 TDB 
 X =-3.024690371572521E+01 Y =-3.761191329581923E-03 Z = 6.972746183663658E-01
 VX=-2.146696887559755E-05 VY=-3.113648105063738E-03 VZ= 6.482619546850155E-05
 LT= 1.747379602070967E-01 RG= 3.025493993430378E+01 RR= 2.334237083741539E-05
2490746.131944444 = A.D. 2107-May-01 15:10:00.0000 TDB 
 X =-3.024690460956362E+01 Y =-3.890926649862020E-03 Z = 6.972773191025828E-01
 VX=-2.143731133073690E-05 VY=-3.113647433272683E-03 VZ= 6.480909726879988E-05
 LT= 1.747379658223467E-01 RG= 3.025494090655419E+01 RR= 2.332568423978901E-05
2490746.173611111 = A.D. 2107-May-01 16:10:00.0000 TDB 
 X =-3.024690550217114E+01 Y =-4.020661962770469E-03 Z = 6.972800191208972E-01
 VX=-2.140789214895458E-05 VY=-3.113647751360536E-03 VZ= 6.479174172434028E-05
 LT= 1.747379714336085E-01 RG= 3.025494187811404E+01 RR= 2.330923013036858E-05
2490746.215277778 = A.D. 2107-May-01 17:10:00.0000 TDB 
 X =-3.024690639355838E+01 Y =-4.150397309556234E-03 Z = 6.972827184112865E-01
 VX=-2.137874320581603E-05 VY=-3.113649059203707E-03 VZ= 6.477416251752255E-05
 LT= 1.747379770409418E-01 RG= 3.025494284899371E+01 RR= 2.329304116940129E-05
2490746.256944444 = A.D. 2107-May-01 18:10:00.0000 TDB 
 X =-3.024690728373726E+01 Y =-4.280132731422808E-03 Z = 6.972854169651409E-01
 VX=-2.134989582005899E-05 VY=-3.113651354728643E-03 VZ= 6.475639376187754E-05
 LT= 1.747379826444145E-01 RG= 3.025494381920493E+01 RR= 2.327714947012265E-05
2490746.298611111 = A.D. 2107-May-01 19:10:00.0000 TDB 
 X =-3.024690817272099E+01 Y =-4.409868269446533E-03 Z = 6.972881147752793E-01
 VX=-2.132138069577826E-05 VY=-3.113654633917396E-03 VZ= 6.473846993640987E-05
 LT= 1.747379882441018E-01 RG= 3.025494478876074E+01 RR= 2.326158653939427E-05
2490746.340277778 = A.D. 2107-May-01 20:10:00.0000 TDB 
 X =-3.024690906052402E+01 Y =-4.539603964496118E-03 Z = 6.972908118359648E-01
 VX=-2.129322786592349E-05 VY=-3.113658890816813E-03 VZ= 6.472042581932087E-05
 LT= 1.747379938400866E-01 RG= 3.025494575767548E+01 RR= 2.324638321964074E-05
